{
    "type": "FeatureCollection",
    "features": [
      {
        "type": "Feature",
        "properties": {"id": "square1"},
        "geometry": {
          "type": "Polygon",
          "coordinates": [[
            [88.36245590486986, 22.57440572978183],
            [88.36245590486986, 22.529235729781833],
            [88.31427567581308, 22.529235729781833],
            [88.31427567581308, 22.57440572978183],
            [88.36245590486986, 22.57440572978183]
          ]]
        }
      },
      {
        "type": "Feature",
        "properties": {"id": "square2"},
        "geometry": {
          "type": "Polygon",
          "coordinates": [[
            [88.41152431918511, 22.57440572978183],
            [88.41152431918511, 22.529235729781833],
            [88.36245590486986, 22.529235729781833],
            [88.36245590486986, 22.57440572978183],
            [88.41152431918511, 22.57440572978183]
          ]]
        }
      },
      {
        "type": "Feature",
        "properties": {"id": "square3"},
        "geometry": {
          "type": "Polygon",
          "coordinates": [[
            [88.36245590486986, 22.619549304002208],
            [88.36245590486986, 22.57440572978183],
            [88.31427567581308, 22.57440572978183],
            [88.31427567581308, 22.619549304002208],
            [88.36245590486986, 22.619549304002208]
          ]]
        }
      },
      {
        "type": "Feature",
        "properties": {"id": "square4"},
        "geometry": {
          "type": "Polygon",
          "coordinates": [[
            [88.41152431918511, 22.619549304002208],
            [88.41152431918511, 22.57440572978183],
            [88.36245590486986, 22.57440572978183],
            [88.36245590486986, 22.619549304002208],
            [88.41152431918511, 22.619549304002208]
          ]]
        }
      }
    ]
  }